{
  "type": "FeatureCollection",
  "features": [
    {
      "type": "Feature",
      "properties": {
        "norad_id": 41832,
        "name": "FENGYUN 1C DEB",
        "group": "fengyun-1c-debris",
        "lat": 40.03482213113174,
        "lon": 37.04787914918409,
        "alt_km": 844.5620122411992,
        "timestamp": "2025-12-06T09:34:17.204080+00:00",
        "meta_object_name": "FENGYUN 1C DEB",
        "meta_object_id": "1999-025EYK",
        "meta_epoch": "2025-12-05T03:01:44.450688",
        "meta_mean_motion": 14.2414868,
        "meta_eccentricity": 0.00551792,
        "meta_inclination": 98.7305,
        "meta_ra_of_asc_node": 43.2015,
        "meta_arg_of_pericenter": 247.5645,
        "meta_mean_anomaly": 111.9684,
        "meta_ephemeris_type": 0,
        "meta_classification_type": "U",
        "meta_norad_cat_id": 41832,
        "meta_element_set_no": 999,
        "meta_rev_at_epoch": 47242,
        "meta_bstar": 0.0034332062,
        "meta_mean_motion_dot": 7.994e-05,
        "meta_mean_motion_ddot": 0,
        "tle_line1": "1 41832U 99025EYK 25339.12620892  .00007994  00000+0  34332-2 0  9990",
        "tle_line2": "2 41832  98.7305  43.2015 0055179 247.5645 111.9684 14.24148680472424"
      },
      "geometry": {
        "type": "Point",
        "coordinates": [
          37.04787914918409,
          40.03482213113174
        ]
      }
    },
    {
      "type": "Feature",
      "properties": {
        "norad_id": 41833,
        "name": "FENGYUN 1C DEB",
        "group": "fengyun-1c-debris",
        "lat": -31.788489223119086,
        "lon": -135.49915961475776,
        "alt_km": 778.1649739464374,
        "timestamp": "2025-12-06T09:34:17.204091+00:00",
        "meta_object_name": "FENGYUN 1C DEB",
        "meta_object_id": "1999-025EYL",
        "meta_epoch": "2025-12-05T03:56:32.530560",
        "meta_mean_motion": 14.25713643,
        "meta_eccentricity": 0.00539801,
        "meta_inclination": 98.7483,
        "meta_ra_of_asc_node": 48.7452,
        "meta_arg_of_pericenter": 244.9755,
        "meta_mean_anomaly": 114.5814,
        "meta_ephemeris_type": 0,
        "meta_classification_type": "U",
        "meta_norad_cat_id": 41833,
        "meta_element_set_no": 999,
        "meta_rev_at_epoch": 47256,
        "meta_bstar": 0.0034835272,
        "meta_mean_motion_dot": 8.358e-05,
        "meta_mean_motion_ddot": 0,
        "tle_line1": "1 41833U 99025EYL 25339.16426540  .00008358  00000+0  34835-2 0  9992",
        "tle_line2": "2 41833  98.7483  48.7452 0053980 244.9755 114.5814 14.25713643472565"
      },
      "geometry": {
        "type": "Point",
        "coordinates": [
          -135.49915961475776,
          -31.788489223119086
        ]
      }
    },
    {
      "type": "Feature",
      "properties": {
        "norad_id": 43213,
        "name": "FENGYUN 1C DEB",
        "group": "fengyun-1c-debris",
        "lat": 76.64425776097659,
        "lon": -94.80015709970172,
        "alt_km": 837.1911876693503,
        "timestamp": "2025-12-06T09:34:17.204101+00:00",
        "meta_object_name": "FENGYUN 1C DEB",
        "meta_object_id": "1999-025EYM",
        "meta_epoch": "2025-12-05T11:10:21.916416",
        "meta_mean_motion": 14.23777351,
        "meta_eccentricity": 0.00540683,
        "meta_inclination": 98.7349,
        "meta_ra_of_asc_node": 43.9148,
        "meta_arg_of_pericenter": 248.0804,
        "meta_mean_anomaly": 111.4622,
        "meta_ephemeris_type": 0,
        "meta_classification_type": "U",
        "meta_norad_cat_id": 43213,
        "meta_element_set_no": 999,
        "meta_rev_at_epoch": 40269,
        "meta_bstar": 0.003007299,
        "meta_mean_motion_dot": 6.941e-05,
        "meta_mean_motion_ddot": 0,
        "tle_line1": "1 43213U 99025EYM 25339.46553144  .00006941  00000+0  30073-2 0  9996",
        "tle_line2": "2 43213  98.7349  43.9148 0054068 248.0804 111.4622 14.23777351402691"
      },
      "geometry": {
        "type": "Point",
        "coordinates": [
          -94.80015709970172,
          76.64425776097659
        ]
      }
    },
    {
      "type": "Feature",
      "properties": {
        "norad_id": 43214,
        "name": "FENGYUN 1C DEB",
        "group": "fengyun-1c-debris",
        "lat": 19.798571473883403,
        "lon": 41.97586525178845,
        "alt_km": 839.6352750912438,
        "timestamp": "2025-12-06T09:34:17.204111+00:00",
        "meta_object_name": "FENGYUN 1C DEB",
        "meta_object_id": "1999-025EYN",
        "meta_epoch": "2025-12-05T21:40:23.018016",
        "meta_mean_motion": 14.24055064,
        "meta_eccentricity": 0.00550242,
        "meta_inclination": 98.7366,
        "meta_ra_of_asc_node": 44.6566,
        "meta_arg_of_pericenter": 246.4159,
        "meta_mean_anomaly": 113.1235,
        "meta_ephemeris_type": 0,
        "meta_classification_type": "U",
        "meta_norad_cat_id": 43214,
        "meta_element_set_no": 999,
        "meta_rev_at_epoch": 40306,
        "meta_bstar": 0.002798926,
        "meta_mean_motion_dot": 6.495e-05,
        "meta_mean_motion_ddot": 0,
        "tle_line1": "1 43214U 99025EYN 25339.90304419  .00006495  00000+0  27989-2 0  9991",
        "tle_line2": "2 43214  98.7366  44.6566 0055024 246.4159 113.1235 14.24055064403063"
      },
      "geometry": {
        "type": "Point",
        "coordinates": [
          41.97586525178845,
          19.798571473883403
        ]
      }
    },
    {
      "type": "Feature",
      "properties": {
        "norad_id": 43358,
        "name": "FENGYUN 1C DEB",
        "group": "fengyun-1c-debris",
        "lat": -47.08258087044889,
        "lon": -88.15670164819095,
        "alt_km": 842.8157534474458,
        "timestamp": "2025-12-06T09:34:17.204122+00:00",
        "meta_object_name": "FENGYUN 1C DEB",
        "meta_object_id": "1999-025EYP",
        "meta_epoch": "2025-12-05T19:53:14.896032",
        "meta_mean_motion": 13.40329475,
        "meta_eccentricity": 0.03675246,
        "meta_inclination": 98.6876,
        "meta_ra_of_asc_node": 100.8169,
        "meta_arg_of_pericenter": 220.0335,
        "meta_mean_anomaly": 137.3174,
        "meta_ephemeris_type": 0,
        "meta_classification_type": "U",
        "meta_norad_cat_id": 43358,
        "meta_element_set_no": 999,
        "meta_rev_at_epoch": 53638,
        "meta_bstar": 0.0042797918,
        "meta_mean_motion_dot": 3.442e-05,
        "meta_mean_motion_ddot": 0,
        "tle_line1": "1 43358U 99025EYP 25339.82864463  .00003442  00000+0  42798-2 0  9995",
        "tle_line2": "2 43358  98.6876 100.8169 0367524 220.0335 137.3174 13.40329475536385"
      },
      "geometry": {
        "type": "Point",
        "coordinates": [
          -88.15670164819095,
          -47.08258087044889
        ]
      }
    },
    {
      "type": "Feature",
      "properties": {
        "norad_id": 43359,
        "name": "FENGYUN 1C DEB",
        "group": "fengyun-1c-debris",
        "lat": -57.367101059913146,
        "lon": 74.62525644145991,
        "alt_km": 823.8903212943933,
        "timestamp": "2025-12-06T09:34:17.204133+00:00",
        "meta_object_name": "FENGYUN 1C DEB",
        "meta_object_id": "1999-025EYQ",
        "meta_epoch": "2025-12-03T04:13:15.477312",
        "meta_mean_motion": 14.23022125,
        "meta_eccentricity": 0.00741146,
        "meta_inclination": 99.054,
        "meta_ra_of_asc_node": 56.8934,
        "meta_arg_of_pericenter": 43.17,
        "meta_mean_anomaly": 317.5255,
        "meta_ephemeris_type": 0,
        "meta_classification_type": "U",
        "meta_norad_cat_id": 43359,
        "meta_element_set_no": 999,
        "meta_rev_at_epoch": 47613,
        "meta_bstar": 0.0025639007,
        "meta_mean_motion_dot": 5.9e-05,
        "meta_mean_motion_ddot": 0,
        "tle_line1": "1 43359U 99025EYQ 25337.17587358  .00005900  00000+0  25639-2 0  9993",
        "tle_line2": "2 43359  99.0540  56.8934 0074114  43.1700 317.5255 14.23022125476131"
      },
      "geometry": {
        "type": "Point",
        "coordinates": [
          74.62525644145991,
          -57.367101059913146
        ]
      }
    },
    {
      "type": "Feature",
      "properties": {
        "norad_id": 45526,
        "name": "FENGYUN 1C DEB",
        "group": "fengyun-1c-debris",
        "lat": -8.55251819513487,
        "lon": 53.8836932251111,
        "alt_km": 823.2025984330394,
        "timestamp": "2025-12-06T09:34:17.204143+00:00",
        "meta_object_name": "FENGYUN 1C DEB",
        "meta_object_id": "1999-025EYR",
        "meta_epoch": "2025-12-05T18:27:16.852320",
        "meta_mean_motion": 14.25848902,
        "meta_eccentricity": 0.00539393,
        "meta_inclination": 98.7638,
        "meta_ra_of_asc_node": 51.9247,
        "meta_arg_of_pericenter": 242.4075,
        "meta_mean_anomaly": 117.162,
        "meta_ephemeris_type": 0,
        "meta_classification_type": "U",
        "meta_norad_cat_id": 45526,
        "meta_element_set_no": 999,
        "meta_rev_at_epoch": 43277,
        "meta_bstar": 0.0033946035,
        "meta_mean_motion_dot": 8.164e-05,
        "meta_mean_motion_ddot": 0,
        "tle_line1": "1 45526U 99025EYR 25339.76894505  .00008164  00000+0  33946-2 0  9998",
        "tle_line2": "2 45526  98.7638  51.9247 0053939 242.4075 117.1620 14.25848902432770"
      },
      "geometry": {
        "type": "Point",
        "coordinates": [
          53.8836932251111,
          -8.55251819513487
        ]
      }
    }
  ]
}